#dP2022  4  9  0  0  0.00000000      96 __u+U ITR14 FIT  IAC
## 2204 518400.00000000   900.00000000 59678 0.0000000000000
+  126   C01C02C03C04C05C06C07C08C09C10C11C12C13C14C16C19C20
+        C21C22C23C24C25C26C27C28C29C30C32C33C34C35C36C37C38
+        C39C40C41C42C43C44C45C46C60E01E02E03E04E05E07E08E09
+        E10E11E12E13E14E15E18E19E21E24E25E26E27E30E31E33E34
+        E36G01G02G03G04G05G06G07G08G09G10G12G13G14G15G16G17
+        G18G19G20G21G22G23G24G25G26G27G28G29G30G31G32J02J03
+        J07R01R02R03R04R05R06R07R08R09R10R11R12R13R14R15R17
+        R18R19R20R21R22R23R24  0  0  0  0  0  0  0  0  0  0
++        15 14 15 15 15  9  9 10  9  9  9  9  9  9  9  7  7
++         7  7  7  7  7  7  7  7  7  7  8  7  7  7  7  8  8
++         8  8  7  7  7  7  7  8 14  4  4  5  4  5  5  5  4
++         4  4  4  5  4  4  5  4  4  5  4  5  4  5  4  4  5
++         4  4  4  4  4  4  4  4  4  3  4  4  4  4  4  4  4
++         4  4  4  0  4  4  4  4  4  4  5  4  4  4  4  8  8
++        14  7  6  6  6  6 13  6  6  6 13  8  6  7  6  6  6
++         6  7  7  6  7 13  6  0  0  0  0  0  0  0  0  0  0
%c M  cc GPS ccc cccc cccc cccc cccc ccccc ccccc ccccc ccccc
%c cc cc ccc ccc cccc cccc cccc cccc ccccc ccccc ccccc ccccc
%f  0.0000000  0.000000000  0.00000000000  0.000000000000000
%f  0.0000000  0.000000000  0.00000000000  0.000000000000000
%i    0    0    0    0      0      0      0      0         0
%i    0    0    0    0      0      0      0      0         0
/* INFORMATION & ANALYSIS CENTER (IAC)            RAPID DATA
/* S/V CLOCKS ARE ALIGNED TO GNSS TIME                      
/* G:C1WC2W R:C1PC2P E:C1XC5X C:C2IC6I J:C1CC2S             
/* PCV:IGS14_2196 OL/AL:FES2004  NONE     YN ORB:CoN CLK:CoN
*  2022 04 09 11 15  0.00000000
PC01 -34312.646748  24483.060788    490.708538     63.940367
PC02   4285.961094  41930.625861    129.998188    144.376775
PC03 -14757.819364  39459.184203    986.588528   -563.824220
PC04 -39607.464656  14445.504640    430.735599     62.737161
PC05  21833.816392  36012.532825    -16.299120    147.717619
PC06 -16005.682508  24750.072511 -30216.025704   -237.367618
PC07 -12321.757109  40155.696884  -2601.766344     28.900216
PC08    269.156629  27791.889621  31767.469502    248.459705
PC09  -4428.269927  24678.456762 -33595.170295   -680.521632
PC10  -5915.551714  41225.328270   4898.263299    136.756418
PC11  23017.386991   5623.779389  14822.502402    281.008121
PC12   6066.126994  14357.920084  23180.183900   -629.782856
PC13   8561.014917  32681.576049  25521.512019    -65.674966
PC14  13429.088901   9308.039470 -22588.318533    456.205927
PC16 -18421.260610  24008.322189 -29294.799012    116.482124
PC19 -16652.852544   1642.056130  22360.570889    879.685468
PC20  -8977.095042 -17242.752790  20054.024527   -871.988072
PC21  -4653.211715  26942.335145  -5496.348553    -81.290822
PC22 -15031.077305  20327.320822  11790.201135   -966.208212
PC23  13120.868065  -9719.886853  22629.979766   -934.402627
PC24  17554.553975  21624.468115  -1941.141460   -951.991663
PC25  22060.780688   7167.241585  15520.666359   -753.578977
PC26   4660.866531  22093.044502 -16433.626934    754.261156
PC27   4239.426621 -16464.171737 -22146.848940    705.100168
PC28  22046.094488 -12589.914991 -11584.087463     53.258833
PC29 -27124.033653   2080.317518  -6248.623524    538.991602
PC30 -15943.119499 -10644.748645 -20296.882032    496.644784
PC32   4437.246251 -27006.609612   5509.401678   -963.910993
PC33  16647.203658  -1697.087768 -22323.942256   -969.273117
PC34  16812.429916  10167.933812  19793.394165   -429.512064
PC35 -22242.650213  12998.356027  10765.583404    220.745434
PC36 -21958.503735  -8143.632663 -15151.376919   -964.603918
PC37  -3064.575667 -21770.643805  17185.876597   -926.483324
PC38  -7391.442306  24679.975292  33438.240204    223.915233
PC39 -23893.774805  24031.252973 -25170.286717     34.938181
PC40 -18024.634066  37622.201391  -5502.339438    259.378700
PC41  15096.830032 -20091.143693 -12078.274721   -968.520054
PC42   8390.864786  18083.265162 -19469.468653   -948.403536
PC43  26996.527475  -1485.492258   6841.611877   -931.015343
PC44  -3929.803123  16743.459624  21970.710806    622.109653
PC45 -12807.418820   9903.544856 -22730.553118    726.747805
PC46 -18354.966110 -20987.177649    512.390370   -262.543051
PC60   7271.558052  41491.227118   1532.983913     -0.553908
PE01  17351.611737  10515.568326  21550.840737   -613.000222
PE02 -17367.628835 -10307.398541 -21640.410269    291.695634
PE03 -21694.073085    754.867463  20121.747989   -546.172449
PE04  23630.773822 -17107.621246  -5001.748532  -1002.750861
PE05  -6962.435148 -16343.980525  23684.077832   -192.494420
PE07 -11613.259271  23684.855000 -13409.281512   -656.841960
PE08 -23460.769379  17409.724635   4728.548503   -509.358893
PE09  11426.355874 -23674.166251  13628.860017   -478.225061
PE10  14249.225152 -11440.912323 -23291.532826   -505.615069
PE11   2927.370994 -15936.300151 -24780.915728   4006.991116
PE12  22750.857494  -5417.985517 -18129.980807   4671.629838
PE13  -3689.833427  15640.819964  24860.842080    427.900666
PE14  24434.238668 -17713.750911  -2342.586467  -1807.875148
PE15 -22857.816942   5310.775793  18054.828070    752.734023
PE18 -24350.398003   7143.867297  -7898.259980  -1585.279337
PE19  20386.382211   1473.445419 -21398.586184  -2721.181246
PE21  11547.045622  26019.839214   8116.936883   -727.433185
PE24   2248.481900 -27040.668244  11781.370672   -551.379176
PE25 -11411.766965 -26145.622920  -7882.023979   -569.777445
PE26  18307.598061  16663.311084  16226.472044  -1009.926614
PE27  -1267.535911  27554.681502 -10756.941014   -272.253617
PE30 -13785.313290  11758.088069 -23424.204805   -416.565583
PE31  13234.507152 -12853.232932  23148.034971   -494.801378
PE33  28452.815845   8106.721294   -628.532454   -457.780563
PE34 -28505.699241  -7934.863798    827.753129   -511.151928
PE36 -17536.280708 -16718.283635 -17012.745694   -357.189388
PG01 -21847.810764 -14418.222289  -5796.489796    389.088640
PG02   3466.060656  16684.487847  20995.536511   -653.007848
PG03 -12639.483397 -17005.562399  15981.854281   -199.440073
PG04 -15205.088941  -7142.070807  20600.367665   -177.332676
PG05   5548.158315  25767.033392  -2679.875665    -77.675382
PG06 -13035.873019   9448.344174  21207.110749    260.473834
PG07 -24758.621558  -4333.800475  -8925.238353    319.609536
PG08  -6343.986718 -14025.221362 -21648.812188    -63.206756
PG09 -21827.312821   3292.830111  14725.810777   -344.838253
PG10  12022.293883 -13059.257793 -19515.055270   -373.475161
PG12   9730.237436  20710.580654  13319.190550   -197.679244
PG13  -3569.295686  17364.021303 -19876.567820    291.119106
PG14 -13301.961145  11831.235610 -19691.384520   -101.168816
PG15   8976.344207  13483.736514 -21437.642129    -70.302022
PG16    453.866833 -26269.220531   1038.892647   -489.839971
PG17 -22301.934827  14476.688889    578.757113    598.095377
PG18  24476.197484   4499.142246  -9432.794755    199.829390
PG19 -19510.636366  16389.835766   6862.490880    142.074585
PG20    874.211858  25523.496985   7723.158371    515.906967
PG21      0.000000      0.000000      0.000000 999999.999999
PG22  16647.171038 -18177.158118  10059.394307    240.601307
PG23  15063.570924   -908.552442 -21868.430891    -13.601761
PG24  20007.977602  14966.217998  -9886.325927    258.837019
PG25  15148.984526   7538.512724  20250.412475    309.636624
PG26   5985.761320 -22321.485799  12726.831312    197.296832
PG27   5906.891790 -19012.747841 -17585.142507    178.631180
PG28  -9546.497508  20159.996245 -14075.823889    372.873645
PG29  21348.678604   -670.022395  15776.339404   -501.084516
PG30 -20920.921112   3226.668951 -16116.459965   -522.941309
PG31  11287.153581 -11208.210261  21204.395248   -172.652922
PG32  20313.376051 -16814.483847   2275.439999   -101.755314
PJ02 -19567.934454  26490.961005 -21838.896974     -2.588056
PJ03 -30463.072538  25028.392940  20026.402654     -1.440638
PJ07 -25403.755833  33656.110574    -48.668020     -0.005002
PR01   -883.882100  19308.639501 -16629.873190      7.673007
PR02  10916.628432   2504.986190 -22864.959234    515.005240
PR03  15451.738409 -14299.255758 -14313.787452     54.603445
PR04  11325.534521 -22760.518722   2074.581150    135.855354
PR05   1014.351948 -18685.216934  17340.544865     90.837822
PR06 -11659.371059  -1125.490192  22657.728708    -42.166343
PR07 -15517.015116  14863.551193  13826.280626     33.649547
PR08 -11259.912922  22805.686942  -2044.483221    -64.515622
PR09 -16775.444097 -13838.619677 -13379.318234     48.847988
PR10 -12123.798973    963.924525 -22423.487682    -81.343447
PR11   -236.324168  16624.230761 -19333.189240     41.609210
PR12  11792.279912  22308.208553  -3786.936946     17.838566
PR13  16572.934654  14863.409092  12435.932618    -20.613792
PR14  11502.394900  -2311.829932  22655.205225     76.337889
PR15    -52.562310 -17207.980072  18844.602643     96.956057
PR17  23913.899639  -4138.788224  -7897.231896    516.109343
PR18  11592.654623  -9435.225683 -20639.482035    112.996621
PR19  -5276.002839 -10159.676190 -22797.073812   -184.706088
PR20 -22836.975663  -4854.992351 -10327.500574    -68.291508
PR21 -23281.490690   4612.200876   9320.638379   -291.946828
PR22 -10925.841583   9473.421381  21026.111710   -175.802672
PR23  11635.987110   9137.850030  20766.083026    -36.518452
PR24  23246.418387   4235.276544   9631.918578     88.260269
EOF
